norad_id,name,regime,epoch,line1,line2,inclination,eccentricity,mean_motion,raan,arg_pericenter,mean_anomaly
25049,SIRIUS 2 (GE-1E),GEO,21354.51493017,1 25049U 97071A   21354.51493017 -.00000198  00000-0  00000-0 0    12\,2 25049   9.2516  45.0121 0001793 336.3054 190.2108  0.99403942 87828,9.2516,0.0001793,0.99403942,45.0121,336.3054,190.2108
25049,SIRIUS 2 (GE-1E),GEO,21355.51901696,1 25049U 97071A   21355.51901696 -.00000184  00000-0  00000-0 0    15\,2 25049   9.2533  45.0067 0001827 335.7437 190.0984  0.99403562 87831,9.2533,0.0001827,0.99403562,45.0067,335.7437,190.0984
25049,SIRIUS 2 (GE-1E),GEO,21355.59059661,1 25049U 97071A   21355.59059661 -.00000183  00000-0  00000-0 0    18\,2 25049   9.2534  45.0063 0001826 335.7665 215.6916  0.99403543 87838,9.2534,0.0001826,0.99403543,45.0063,335.7665,215.6916
25049,SIRIUS 2 (GE-1E),GEO,21356.52314170,1 25049U 97071A   21356.52314170 -.00000170  00000-0  00000+0 0  9622\,2 25049   9.2549  45.0013 0001867 335.0527 190.1285  0.99403218 87929,9.2549,0.0001867,0.99403218,45.0013,335.0527,190.1285
25049,SIRIUS 2 (GE-1E),GEO,21357.52730691,1 25049U 97071A   21357.52730691 -.00000154  00000-0  00000-0 0    10\,2 25049   9.2566  44.9958 0001914 334.3704 190.1628  0.99402881 87854,9.2566,0.0001914,0.99402881,44.9958,334.3704,190.1628
25049,SIRIUS 2 (GE-1E),GEO,21358.40733282,1 25049U 97071A   21358.40733282 -.00000139  00000-0  00000-0 0    10\,2 25049   9.2580  44.9910 0001958 333.7382 145.7224  0.99402627 87868,9.258,0.0001958,0.99402627,44.991,333.7382,145.7224
25049,SIRIUS 2 (GE-1E),GEO,21358.60317421,1 25049U 97071A   21358.60317421 -.00000136  00000-0  00000-0 0    12\,2 25049   9.2583  44.9900 0001964 333.6087 215.9358  0.99402565 87867,9.2583,0.0001964,0.99402565,44.99,333.6087,215.9358
25049,SIRIUS 2 (GE-1E),GEO,21359.54303236,1 25049U 97071A   21359.54303236 -.00000120  00000-0  00000-0 0    18\,2 25049   9.2599  44.9849 0002004 332.9476 192.9339  0.99402293 87878,9.2599,0.0002004,0.99402293,44.9849,332.9476,192.9339
25049,SIRIUS 2 (GE-1E),GEO,21360.53989003,1 25049U 97071A   21360.53989003 -.00000103  00000-0  00000-0 0    12\,2 25049   9.2615  44.9795 0002055 332.2615 190.3539  0.99402025 87889,9.2615,0.0002055,0.99402025,44.9795,332.2615,190.3539
25049,SIRIUS 2 (GE-1E),GEO,21360.61149630,1 25049U 97071A   21360.61149630 -.00000102  00000-0  00000-0 0    14\,2 25049   9.2616  44.9791 0002054 332.2147 216.0264  0.99402025 87886,9.2616,0.0002054,0.99402025,44.9791,332.2147,216.0264
25049,SIRIUS 2 (GE-1E),GEO,21361.54402677,1 25049U 97071A   21361.54402677 -.00000086  00000-0  00000-0 0    11\,2 25049   9.2631  44.9740 0002102 331.6585 190.2952  0.99401788 87893,9.2631,0.0002102,0.99401788,44.974,331.6585,190.2952
25049,SIRIUS 2 (GE-1E),GEO,21362.11779686,1 25049U 97071A   21362.11779686 -.00000077  00000-0  00000-0 0    12\,2 25049   9.2640  44.9709 0002134 331.3685  35.9133  0.99401676 87905,9.264,0.0002134,0.99401676,44.9709,331.3685,35.9133
25049,SIRIUS 2 (GE-1E),GEO,21363.14125337,1 25049U 97071A   21363.14125337 -.00000061  00000-0  00000+0 0  9666\,2 25049   9.2655  44.9651 0002191 330.8364  42.6968  0.99401491 87993,9.2655,0.0002191,0.99401491,44.9651,330.8364,42.6968
25049,SIRIUS 2 (GE-1E),GEO,21363.55238304,1 25049U 97071A   21363.55238304 -.00000054  00000-0  00000-0 0    13\,2 25049   9.2662  44.9627 0002216 330.5981 190.0601  0.99401406 87914,9.2662,0.0002216,0.99401406,44.9627,330.5981,190.0601
25049,SIRIUS 2 (GE-1E),GEO,21364.47269634,1 25049U 97071A   21364.47269634 -.00000040  00000-0  00000-0 0    10\,2 25049   9.2676  44.9574 0002271 330.2760 159.7222  0.99401277 87921,9.2676,0.0002271,0.99401277,44.9574,330.276,159.7222
25049,SIRIUS 2 (GE-1E),GEO,21364.62824088,1 25049U 97071A   21364.62824088 -.00000038  00000-0  00000-0 0    14\,2 25049   9.2679  44.9565 0002278 330.1360 215.5253  0.99401266 87929,9.2679,0.0002278,0.99401266,44.9565,330.136,215.5253
25049,SIRIUS 2 (GE-1E),GEO,21365.56077747,1 25049U 97071A   21365.56077747 -.00000025  00000-0  00000-0 0    16\,2 25049   9.2693  44.9511 0002335 329.9496 189.4256  0.99401171 87934,9.2693,0.0002335,0.99401171,44.9511,329.9496,189.4256
25049,SIRIUS 2 (GE-1E),GEO,21365.63238369,1 25049U 97071A   21365.63238369 -.00000025  00000-0  00000+0 0  9673\,2 25049   9.2694  44.9507 0002343 329.8949 215.1047  0.99401155 88018,9.2694,0.0002343,0.99401155,44.9507,329.8949,215.1047
25049,SIRIUS 2 (GE-1E),GEO,22001.59449757,1 25049U 97071A   22001.59449757 -.00000012  00000-0  00000-0 0    17\,2 25049   9.2709  44.9450 0002408 329.7816 199.5153  0.99401071 87947,9.2709,0.0002408,0.99401071,44.945,329.7816,199.5153
25049,SIRIUS 2 (GE-1E),GEO,22001.64365632,1 25049U 97071A   22001.64365632 -.00000011  00000-0  00000-0 0    11\,2 25049   9.2710  44.9447 0002413 329.7505 217.1378  0.99401060 87940,9.271,0.0002413,0.9940106,44.9447,329.7505,217.1378
25049,SIRIUS 2 (GE-1E),GEO,22002.46131389,1 25049U 97071A   22002.46131389 -.00000001  00000-0  00000-0 0    11\,2 25049   9.2723  44.9399 0002467 329.8424 149.6503  0.99401059 87958,9.2723,0.0002467,0.99401059,44.9399,329.8424,149.6503
25049,SIRIUS 2 (GE-1E),GEO,22002.64066838,1 25049U 97071A   22002.64066838  .00000001  00000-0  00000+0 0  9687\,2 25049   9.2725  44.9389 0002480 329.7726 213.9035  0.99401060 88035,9.2725,0.000248,0.9940106,44.9389,329.7726,213.9035
25049,SIRIUS 2 (GE-1E),GEO,22003.64499402,1 25049U 97071A   22003.64499402  .00000013  00000-0  00000-0 0    17\,2 25049   9.2741  44.9329 0002553 329.9136 213.1647  0.99401033 87967,9.2741,0.0002553,0.99401033,44.9329,329.9136,213.1647
25049,SIRIUS 2 (GE-1E),GEO,22004.60464139,1 25049U 97071A   22004.60464139  .00000025  00000-0  00000-0 0    16\,2 25049   9.2756  44.9272 0002625 330.1275 196.3672  0.99401105 87979,9.2756,0.0002625,0.99401105,44.9272,330.1275,196.3672
25049,SIRIUS 2 (GE-1E),GEO,22004.66095802,1 25049U 97071A   22004.66095802  .00000025  00000-0  00000-0 0    19\,2 25049   9.2757  44.9269 0002624 330.1170 216.5316  0.99401124 87970,9.2757,0.0002624,0.99401124,44.9269,330.117,216.5316
25049,SIRIUS 2 (GE-1E),GEO,22005.60270024,1 25049U 97071A   22005.60270024  .00000037  00000-0  00000-0 0    18\,2 25049   9.2772  44.9213 0002690 330.3617 193.2902  0.99401088 87989,9.2772,0.000269,0.99401088,44.9213,330.3617,193.2902
25049,SIRIUS 2 (GE-1E),GEO,22005.65983043,1 25049U 97071A   22005.65983043  .00000037  00000-0  00000-0 0    15\,2 25049   9.2773  44.9210 0002691 330.3666 213.7303  0.99401110 87981,9.2773,0.0002691,0.9940111,44.921,330.3666,213.7303
25049,SIRIUS 2 (GE-1E),GEO,22006.61255251,1 25049U 97071A   22006.61255251  .00000048  00000-0  00000-0 0    17\,2 25049   9.2788  44.9153 0002751 330.6986 194.3387  0.99401297 87991,9.2788,0.0002751,0.99401297,44.9153,330.6986,194.3387
25049,SIRIUS 2 (GE-1E),GEO,22006.65725800,1 25049U 97071A   22006.65725800  .00000049  00000-0  00000-0 0    14\,2 25049   9.2789  44.9150 0002750 330.6993 210.3366  0.99401314 87992,9.2789,0.000275,0.99401314,44.915,330.6993,210.3366
25049,SIRIUS 2 (GE-1E),GEO,22007.09061740,1 25049U 97071A   22007.09061740  .00000054  00000-0  00000+0 0  9709\,2 25049   9.2796  44.9125 0002778 331.0403   5.0759  0.99401370 88081,9.2796,0.0002778,0.9940137,44.9125,331.0403,5.0759
25049,SIRIUS 2 (GE-1E),GEO,22007.59580466,1 25049U 97071A   22007.59580466  .00000059  00000-0  00000-0 0    16\,2 25049   9.2804  44.9095 0002804 331.0854 185.8155  0.99401462 88008,9.2804,0.0002804,0.99401462,44.9095,331.0854,185.8155
25049,SIRIUS 2 (GE-1E),GEO,22007.64467663,1 25049U 97071A   22007.64467663  .00000060  00000-0  00000-0 0    17\,2 25049   9.2805  44.9093 0002808 331.0976 203.2924  0.99401468 88001,9.2805,0.0002808,0.99401468,44.9093,331.0976,203.2924
25049,SIRIUS 2 (GE-1E),GEO,22008.59038874,1 25049U 97071A   22008.59038874  .00000069  00000-0  00000-0 0    19\,2 25049   9.2820  44.9038 0002868 331.5141 181.3036  0.99401610 88012,9.282,0.0002868,0.9940161,44.9038,331.5141,181.3036
25049,SIRIUS 2 (GE-1E),GEO,22008.64567973,1 25049U 97071A   22008.64567973  .00000070  00000-0  00000-0 0    14\,2 25049   9.2821  44.9035 0002868 331.5243 201.0804  0.99401638 88016,9.2821,0.0002868,0.99401638,44.9035,331.5243,201.0804
25049,SIRIUS 2 (GE-1E),GEO,22009.16763854,1 25049U 97071A   22009.16763854  .00000075  00000-0  00000+0 0  9718\,2 25049   9.2829  44.9005 0002895 331.8668  27.5258  0.99401775 88101,9.2829,0.0002895,0.99401775,44.9005,331.8668,27.5258
25049,SIRIUS 2 (GE-1E),GEO,22009.57090576,1 25049U 97071A   22009.57090576  .00000078  00000-0  00000-0 0    15\,2 25049   9.2836  44.8982 0002922 331.9671 171.7377  0.99401876 88025,9.2836,0.0002922,0.99401876,44.8982,331.9671,171.7377
25049,SIRIUS 2 (GE-1E),GEO,22009.67418902,1 25049U 97071A   22009.67418902  .00000079  00000-0  00000-0 0    14\,2 25049   9.2838  44.8977 0002934 332.0074 208.6569  0.99401871 88021,9.2838,0.0002934,0.99401871,44.8977,332.0074,208.6569
25049,SIRIUS 2 (GE-1E),GEO,22010.57653216,1 25049U 97071A   22010.57653216  .00000085  00000-0  00000-0 0    11\,2 25049   9.2852  44.8926 0002990 332.4285 171.1470  0.99402118 88032,9.2852,0.000299,0.99402118,44.8926,332.4285,171.147
25049,SIRIUS 2 (GE-1E),GEO,22010.64046485,1 25049U 97071A   22010.64046485  .00000085  00000-0  00000-0 0    13\,2 25049   9.2853  44.8922 0002992 332.4496 194.0051  0.99402143 88032,9.2853,0.0002992,0.99402143,44.8922,332.4496,194.0051
25049,SIRIUS 2 (GE-1E),GEO,22011.17494965,1 25049U 97071A   22011.17494965  .00000088  00000-0  00000+0 0  9721\,2 25049   9.2862  44.8893 0003012 332.6873  25.0381  0.99402308 88126,9.2862,0.0003012,0.99402308,44.8893,332.6873,25.0381
25049,SIRIUS 2 (GE-1E),GEO,22011.55679299,1 25049U 97071A   22011.55679299  .00000089  00000-0  00000-0 0    13\,2 25049   9.2868  44.8871 0003032 332.8017 161.5689  0.99402405 88048,9.2868,0.0003032,0.99402405,44.8871,332.8017,161.5689
